[{"OBJECT_NAME":"CELESTIS-02 & TAURUS R/B","OBJECT_ID":"1998-007D","EPOCH":"2026-03-14T14:45:50.260320","MEAN_MOTION":14.22454914,"ECCENTRICITY":0.00635366,"INCLINATION":108.0064,"RA_OF_ASC_NODE":141.4014,"ARG_OF_PERICENTER":293.8213,"MEAN_ANOMALY":232.0618,"EPHEMERIS_TYPE":0,"CLASSIFICATION_TYPE":"U","NORAD_CAT_ID":25160,"ELEMENT_SET_NO":999,"REV_AT_EPOCH":45706,"BSTAR":6.9899931e-5,"MEAN_MOTION_DOT":2.9e-7,"MEAN_MOTION_DDOT":0}]
