CELESTIS-02 & TAURUS R/B
1 25160U 98007D   26073.61516505  .00000029  00000+0  69900-4 0  9993
2 25160 108.0064 141.4014 0063536 293.8213 232.0618 14.22454914457061
